[{"OBJECT_NAME":"STARLINK-6255","OBJECT_ID":"2023-065AZ","EPOCH":"2026-03-09T22:00:01.999584","MEAN_MOTION":15.13105722,"ECCENTRICITY":0.00017096,"INCLINATION":43.0006,"RA_OF_ASC_NODE":221.4929,"ARG_OF_PERICENTER":303.1666,"MEAN_ANOMALY":153.6112,"EPHEMERIS_TYPE":0,"CLASSIFICATION_TYPE":"U","NORAD_CAT_ID":56550,"ELEMENT_SET_NO":999,"REV_AT_EPOCH":577,"BSTAR":0.0067152623,"MEAN_MOTION_DOT":0.00122895,"MEAN_MOTION_DDOT":0},{"OBJECT_NAME":"CONNECTA IOT-14","OBJECT_ID":"2026-004AQ","EPOCH":"2026-03-09T22:44:46.185792","MEAN_MOTION":15.17901608,"ECCENTRICITY":0.00089335,"INCLINATION":97.4512,"RA_OF_ASC_NODE":69.4576,"ARG_OF_PERICENTER":336.151,"MEAN_ANOMALY":23.9308,"EPHEMERIS_TYPE":0,"CLASSIFICATION_TYPE":"U","NORAD_CAT_ID":67401,"ELEMENT_SET_NO":999,"REV_AT_EPOCH":870,"BSTAR":0.00024848153,"MEAN_MOTION_DOT":4.975e-5,"MEAN_MOTION_DDOT":0}]
